[{"OBJECT_NAME":"AE2A","OBJECT_ID":"2025-135BR","EPOCH":"2026-03-09T22:31:40.668960","MEAN_MOTION":14.96072328,"ECCENTRICITY":0.00037442,"INCLINATION":97.7564,"RA_OF_ASC_NODE":184.9238,"ARG_OF_PERICENTER":309.3456,"MEAN_ANOMALY":50.7433,"EPHEMERIS_TYPE":0,"CLASSIFICATION_TYPE":"U","NORAD_CAT_ID":64591,"ELEMENT_SET_NO":999,"REV_AT_EPOCH":3911,"BSTAR":0.00073209812,"MEAN_MOTION_DOT":8.175e-5,"MEAN_MOTION_DDOT":0},{"OBJECT_NAME":"FENGYUN 1C DEB","OBJECT_ID":"1999-025AEY","EPOCH":"2026-03-09T19:16:38.619264","MEAN_MOTION":14.92699645,"ECCENTRICITY":0.00328142,"INCLINATION":98.9116,"RA_OF_ASC_NODE":104.6855,"ARG_OF_PERICENTER":181.0852,"MEAN_ANOMALY":235.9591,"EPHEMERIS_TYPE":0,"CLASSIFICATION_TYPE":"U","NORAD_CAT_ID":30437,"ELEMENT_SET_NO":999,"REV_AT_EPOCH":482,"BSTAR":0.0024447577,"MEAN_MOTION_DOT":0.00025496,"MEAN_MOTION_DDOT":0}]
